{"type": "FeatureCollection", "features": [ {"type": "Feature", "properties": {"norad_id": 66869, "name": "STARLINK-36092", "group": "last-30-days", "lat": 40.80325656151805, "lon": 150.80413999258025, "alt_km": 409.29824290983925, "timestamp": "2025-12-26T13:39:17.666148+00:00", "meta": {"OBJECT_NAME": "STARLINK-36092", "OBJECT_ID": "2025-281X", "EPOCH": "2025-12-26T06:00:02.999808", "MEAN_MOTION": 15.50503968, "ECCENTRICITY": 0.00011575, "INCLINATION": 43.0001, "RA_OF_ASC_NODE": 40.5517, "ARG_OF_PERICENTER": 246.8703, "MEAN_ANOMALY": 237.3742, "EPHEMERIS_TYPE": 0, "CLASSIFICATION_TYPE": "U", "NORAD_CAT_ID": 66869, "ELEMENT_SET_NO": 999, "REV_AT_EPOCH": 359, "BSTAR": 0.00073976191, "MEAN_MOTION_DOT": 0.0004318, "MEAN_MOTION_DDOT": 0}, "tle": {"line1": "1 66869U 25281X   25360.25003472  .00043180  00000+0  73976-3 0  9992", "line2": "2 66869  43.0001  40.5517 0001157 246.8703 237.3742 15.50503968  3598"}}, "geometry": {"type": "Point", "coordinates": [150.80413999258025, 40.80325656151805]}}, {"type": "Feature", "properties": {"norad_id": 66870, "name": "STARLINK-36114", "group": "last-30-days", "lat": 40.28666933580783, "lon": 153.2231711908557, "alt_km": 409.26606093288683, "timestamp": "2025-12-26T13:39:17.666160+00:00", "meta": {"OBJECT_NAME": "STARLINK-36114", "OBJECT_ID": "2025-281Y", "EPOCH": "2025-12-26T06:00:02.999808", "MEAN_MOTION": 15.50504641, "ECCENTRICITY": 0.00010978, "INCLINATION": 43, "RA_OF_ASC_NODE": 40.5468, "ARG_OF_PERICENTER": 240.438, "MEAN_ANOMALY": 245.7158, "EPHEMERIS_TYPE": 0, "CLASSIFICATION_TYPE": "U", "NORAD_CAT_ID": 66870, "ELEMENT_SET_NO": 999, "REV_AT_EPOCH": 345, "BSTAR": 0.00079662978, "MEAN_MOTION_DOT": 0.00046547, "MEAN_MOTION_DDOT": 0}, "tle": {"line1": "1 66870U 25281Y   25360.25003472  .00046547  00000+0  79663-3 0  9993", "line2": "2 66870  43.0000  40.5468 0001097 240.4380 245.7158 15.50504641  3456"}}, "geometry": {"type": "Point", "coordinates": [153.2231711908557, 40.28666933580783]}}, {"type": "Feature", "properties": {"norad_id": 66871, "name": "STARLINK-36095", "group": "last-30-days", "lat": 39.7152845073703, "lon": 155.62374968401383, "alt_km": 409.2426639738287, "timestamp": "2025-12-26T13:39:17.666170+00:00", "meta": {"OBJECT_NAME": "STARLINK-36095", "OBJECT_ID": "2025-281Z", "EPOCH": "2025-12-26T06:00:02.999808", "MEAN_MOTION": 15.50506604, "ECCENTRICITY": 9.2e-05, "INCLINATION": 43, "RA_OF_ASC_NODE": 40.5415, "ARG_OF_PERICENTER": 238.8893, "MEAN_ANOMALY": 249.1891, "EPHEMERIS_TYPE": 0, "CLASSIFICATION_TYPE": "U", "NORAD_CAT_ID": 66871, "ELEMENT_SET_NO": 999, "REV_AT_EPOCH": 359, "BSTAR": 0.00075046753, "MEAN_MOTION_DOT": 0.00043817, "MEAN_MOTION_DDOT": 0}, "tle": {"line1": "1 66871U 25281Z   25360.25003472  .00043817  00000+0  75047-3 0  9993", "line2": "2 66871  43.0000  40.5415 0000920 238.8893 249.1891 15.50506604  3591"}}, "geometry": {"type": "Point", "coordinates": [155.62374968401383, 39.7152845073703]}}, {"type": "Feature", "properties": {"norad_id": 66872, "name": "STARLINK-36082", "group": "last-30-days", "lat": 39.10080887478862, "lon": 157.96270300022, "alt_km": 409.51054913098324, "timestamp": "2025-12-26T13:39:17.666184+00:00", "meta": {"OBJECT_NAME": "STARLINK-36082", "OBJECT_ID": "2025-281AA", "EPOCH": "2025-12-26T06:00:02.999808", "MEAN_MOTION": 15.50503155, "ECCENTRICITY": 0.00012035, "INCLINATION": 43, "RA_OF_ASC_NODE": 40.5366, "ARG_OF_PERICENTER": 244.6308, "MEAN_ANOMALY": 245.3625, "EPHEMERIS_TYPE": 0, "CLASSIFICATION_TYPE": "U", "NORAD_CAT_ID": 66872, "ELEMENT_SET_NO": 999, "REV_AT_EPOCH": 345, "BSTAR": 0.00078230601, "MEAN_MOTION_DOT": 0.00045696, "MEAN_MOTION_DDOT": 0}, "tle": {"line1": "1 66872U 25281AA  25360.25003472  .00045696  00000+0  78231-3 0  9999", "line2": "2 66872  43.0000  40.5366 0001203 244.6308 245.3625 15.50503155  3454"}}, "geometry": {"type": "Point", "coordinates": [157.96270300022, 39.10080887478862]}}, {"type": "Feature", "properties": {"norad_id": 66873, "name": "STARLINK-36128", "group": "last-30-days", "lat": 36.98165142037135, "lon": 164.74231567886056, "alt_km": 409.6745027251018, "timestamp": "2025-12-26T13:39:17.666196+00:00", "meta": {"OBJECT_NAME": "STARLINK-36128", "OBJECT_ID": "2025-281AB", "EPOCH": "2025-12-26T06:00:02.999808", "MEAN_MOTION": 15.50504009, "ECCENTRICITY": 0.0001146, "INCLINATION": 43, "RA_OF_ASC_NODE": 40.5214, "ARG_OF_PERICENTER": 237.4125, "MEAN_ANOMALY": 258.327, "EPHEMERIS_TYPE": 0, "CLASSIFICATION_TYPE": "U", "NORAD_CAT_ID": 66873, "ELEMENT_SET_NO": 999, "REV_AT_EPOCH": 359, "BSTAR": 0.00080783207, "MEAN_MOTION_DOT": 0.00047209, "MEAN_MOTION_DDOT": 0}, "tle": {"line1": "1 66873U 25281AB  25360.25003472  .00047209  00000+0  80783-3 0  9997", "line2": "2 66873  43.0000  40.5214 0001146 237.4125 258.3270 15.50504009  3594"}}, "geometry": {"type": "Point", "coordinates": [164.74231567886056, 36.98165142037135]}}, {"type": "Feature", "properties": {"norad_id": 66874, "name": "STARLINK-36129", "group": "last-30-days", "lat": 38.44039962095369, "lon": 160.26058160942733, "alt_km": 409.55082458859124, "timestamp": "2025-12-26T13:39:17.666206+00:00", "meta": {"OBJECT_NAME": "STARLINK-36129", "OBJECT_ID": "2025-281AC", "EPOCH": "2025-12-26T06:00:02.999808", "MEAN_MOTION": 15.50506119, "ECCENTRICITY": 0.00011461, "INCLINATION": 43.0003, "RA_OF_ASC_NODE": 40.5322, "ARG_OF_PERICENTER": 244.3948, "MEAN_ANOMALY": 247.5038, "EPHEMERIS_TYPE": 0, "CLASSIFICATION_TYPE": "U", "NORAD_CAT_ID": 66874, "ELEMENT_SET_NO": 999, "REV_AT_EPOCH": 359, "BSTAR": 0.00084051095, "MEAN_MOTION_DOT": 0.00049149, "MEAN_MOTION_DDOT": 0}, "tle": {"line1": "1 66874U 25281AC  25360.25003472  .00049149  00000+0  84051-3 0  9995", "line2": "2 66874  43.0003  40.5322 0001146 244.3948 247.5038 15.50506119  3594"}}, "geometry": {"type": "Point", "coordinates": [160.26058160942733, 38.44039962095369]}}, {"type": "Feature", "properties": {"norad_id": 66875, "name": "STARLINK-36053", "group": "last-30-days", "lat": 36.189944483868224, "lon": 166.9176971299465, "alt_km": 409.79321233901555, "timestamp": "2025-12-26T13:39:17.666216+00:00", "meta": {"OBJECT_NAME": "STARLINK-36053", "OBJECT_ID": "2025-281AD", "EPOCH": "2025-12-26T06:00:02.999808", "MEAN_MOTION": 15.50504213, "ECCENTRICITY": 0.00011362, "INCLINATION": 43, "RA_OF_ASC_NODE": 40.5159, "ARG_OF_PERICENTER": 238.7985, "MEAN_ANOMALY": 258.8607, "EPHEMERIS_TYPE": 0, "CLASSIFICATION_TYPE": "U", "NORAD_CAT_ID": 66875, "ELEMENT_SET_NO": 999, "REV_AT_EPOCH": 359, "BSTAR": 0.00077883361, "MEAN_MOTION_DOT": 0.00045492, "MEAN_MOTION_DDOT": 0}, "tle": {"line1": "1 66875U 25281AD  25360.25003472  .00045492  00000+0  77883-3 0  9998", "line2": "2 66875  43.0000  40.5159 0001136 238.7985 258.8607 15.50504213  3597"}}, "geometry": {"type": "Point", "coordinates": [166.9176971299465, 36.189944483868224]}}, {"type": "Feature", "properties": {"norad_id": 66876, "name": "STARLINK-35702", "group": "last-30-days", "lat": 37.731781535323144, "lon": 162.52503101801977, "alt_km": 409.60546014021475, "timestamp": "2025-12-26T13:39:17.666228+00:00", "meta": {"OBJECT_NAME": "STARLINK-35702", "OBJECT_ID": "2025-281AE", "EPOCH": "2025-12-26T06:00:02.999808", "MEAN_MOTION": 15.50503295, "ECCENTRICITY": 0.00010635, "INCLINATION": 43.0001, "RA_OF_ASC_NODE": 40.5267, "ARG_OF_PERICENTER": 243.3845, "MEAN_ANOMALY": 250.4366, "EPHEMERIS_TYPE": 0, "CLASSIFICATION_TYPE": "U", "NORAD_CAT_ID": 66876, "ELEMENT_SET_NO": 999, "REV_AT_EPOCH": 359, "BSTAR": 0.00083699604, "MEAN_MOTION_DOT": 0.00048935, "MEAN_MOTION_DDOT": 0}, "tle": {"line1": "1 66876U 25281AE  25360.25003472  .00048935  00000+0  83700-3 0  9999", "line2": "2 66876  43.0001  40.5267 0001063 243.3845 250.4366 15.50503295  3594"}}, "geometry": {"type": "Point", "coordinates": [162.52503101801977, 37.731781535323144]}}, {"type": "Feature", "properties": {"norad_id": 66877, "name": "ZQ-3 R/B", "group": "last-30-days", "lat": -56.911509176602266, "lon": -88.60575948421922, "alt_km": 184.05347478714248, "timestamp": "2025-12-26T13:39:17.666238+00:00", "meta": {"OBJECT_NAME": "ZQ-3 R/B", "OBJECT_ID": "2025-282A", "EPOCH": "2025-12-26T07:35:39.811200", "MEAN_MOTION": 14.87235222, "ECCENTRICITY": 0.06644825, "INCLINATION": 56.9488, "RA_OF_ASC_NODE": 4.606, "ARG_OF_PERICENTER": 243.9844, "MEAN_ANOMALY": 109.1326, "EPHEMERIS_TYPE": 0, "CLASSIFICATION_TYPE": "U", "NORAD_CAT_ID": 66877, "ELEMENT_SET_NO": 999, "REV_AT_EPOCH": 339, "BSTAR": 0.00016052508, "MEAN_MOTION_DOT": 0.00969835, "MEAN_MOTION_DDOT": 7.977161e-06}, "tle": {"line1": "1 66877U 25282A   25360.31643300  .00969835  79772-5  16053-3 0  9994", "line2": "2 66877  56.9488   4.6060 0664482 243.9844 109.1326 14.87235222  3399"}}, "geometry": {"type": "Point", "coordinates": [-88.60575948421922, -56.911509176602266]}}, {"type": "Feature", "properties": {"norad_id": 66878, "name": "STARLINK-35866", "group": "last-30-days", "lat": -52.45157181134137, "lon": -72.19104873498381, "alt_km": 404.9760938379559, "timestamp": "2025-12-26T13:39:17.666249+00:00", "meta": {"OBJECT_NAME": "STARLINK-35866", "OBJECT_ID": "2025-283A", "EPOCH": "2025-12-26T06:00:02.999808", "MEAN_MOTION": 15.5747003, "ECCENTRICITY": 0.00014502, "INCLINATION": 53.1595, "RA_OF_ASC_NODE": 6.6083, "ARG_OF_PERICENTER": 90.1476, "MEAN_ANOMALY": 199.2482, "EPHEMERIS_TYPE": 0, "CLASSIFICATION_TYPE": "U", "NORAD_CAT_ID": 66878, "ELEMENT_SET_NO": 999, "REV_AT_EPOCH": 460, "BSTAR": -0.030659769, "MEAN_MOTION_DOT": -0.02048487, "MEAN_MOTION_DDOT": 0}, "tle": {"line1": "1 66878U 25283A   25360.25003472 -.02048487  00000+0 -30660-1 0  9994", "line2": "2 66878  53.1595   6.6083 0001450  90.1476 199.2482 15.57470030  4602"}}, "geometry": {"type": "Point", "coordinates": [-72.19104873498381, -52.45157181134137]}}]}